$$SOE
2460154.500000000, A.D. 2023-Jul-29 00:00:00.0000, 2.390229955796193E+09, -6.028178092550873E+09, 2.259616182503464E+08,
2460161.500000000, A.D. 2023-Aug-05 00:00:00.0000, 2.392805569215604E+09, -6.027295039518250E+09, 2.258563759649229E+08,
2460168.500000000, A.D. 2023-Aug-12 00:00:00.0000, 2.395380670558412E+09, -6.026410941490063E+09, 2.257510959410145E+08,
2460175.500000000, A.D. 2023-Aug-19 00:00:00.0000, 2.397955257398860E+09, -6.025525801142414E+09, 2.256457783192859E+08,
2460182.500000000, A.D. 2023-Aug-26 00:00:00.0000, 2.400529327616898E+09, -6.024639621550201E+09, 2.255404232162905E+08,
2460189.500000000, A.D. 2023-Sep-02 00:00:00.0000, 2.403102879375916E+09, -6.023752406168434E+09, 2.254350307258866E+08,
2460196.500000000, A.D. 2023-Sep-09 00:00:00.0000, 2.405675911114125E+09, -6.022864158926090E+09, 2.253296009092927E+08,
2460203.500000000, A.D. 2023-Sep-16 00:00:00.0000, 2.408248421717970E+09, -6.021974884490500E+09, 2.252241337536612E+08,
2460210.500000000, A.D. 2023-Sep-23 00:00:00.0000, 2.410820411294024E+09, -6.021084588415497E+09, 2.251186290844576E+08,
2460217.500000000, A.D. 2023-Sep-30 00:00:00.0000, 2.413391882199756E+09, -6.020193275982590E+09, 2.250130865602212E+08,
2460224.500000000, A.D. 2023-Oct-07 00:00:00.0000, 2.415962837979465E+09, -6.019300950278013E+09, 2.249075059213519E+08,
2460231.500000000, A.D. 2023-Oct-14 00:00:00.0000, 2.418533281245267E+09, -6.018407612818792E+09, 2.248018871269529E+08,
2460238.500000000, A.D. 2023-Oct-21 00:00:00.0000, 2.421103213731736E+09, -6.017513265125120E+09, 2.246962302147615E+08,
2460245.500000000, A.D. 2023-Oct-28 00:00:00.0000, 2.423672637099846E+09, -6.016617908978927E+09, 2.245905351997395E+08,
2460252.500000000, A.D. 2023-Nov-04 00:00:00.0000, 2.426241553240183E+09, -6.015721546139013E+09, 2.244848020632820E+08,
2460259.500000000, A.D. 2023-Nov-11 00:00:00.0000, 2.428809964252991E+09, -6.014824178112659E+09, 2.243790307679992E+08,
2460266.500000000, A.D. 2023-Nov-18 00:00:00.0000, 2.431377872324552E+09, -6.013925806047973E+09, 2.242732212729194E+08,
2460273.500000000, A.D. 2023-Nov-25 00:00:00.0000, 2.433945279572723E+09, -6.013026430724444E+09, 2.241673735445254E+08,
2460280.500000000, A.D. 2023-Dec-02 00:00:00.0000, 2.436512187889824E+09, -6.012126052652918E+09, 2.240614875602889E+08,
2460287.500000000, A.D. 2023-Dec-09 00:00:00.0000, 2.439078598860691E+09, -6.011224672343847E+09, 2.239555632928629E+08,
2460294.500000000, A.D. 2023-Dec-16 00:00:00.0000, 2.441644514043449E+09, -6.010322290731306E+09, 2.238496006496255E+08,
2460301.500000000, A.D. 2023-Dec-23 00:00:00.0000, 2.444209935961454E+09, -6.009418909065306E+09, 2.237435993917530E+08,
2460308.500000000, A.D. 2023-Dec-30 00:00:00.0000, 2.446774868466190E+09, -6.008514527223127E+09, 2.236375592413762E+08,
2460315.500000000, A.D. 2024-Jan-06 00:00:00.0000, 2.449339314698653E+09, -6.007609142800467E+09, 2.235314801463189E+08,
2460322.500000000, A.D. 2024-Jan-13 00:00:00.0000, 2.451903275821991E+09, -6.006702752789192E+09, 2.234253622634859E+08,
2460329.500000000, A.D. 2024-Jan-20 00:00:00.0000, 2.454466751748936E+09, -6.005795354757213E+09, 2.233192058005245E+08,
2460336.500000000, A.D. 2024-Jan-27 00:00:00.0000, 2.457029741835298E+09, -6.004886946878232E+09, 2.232130109548860E+08,
2460343.500000000, A.D. 2024-Feb-03 00:00:00.0000, 2.459592245111154E+09, -6.003977527760010E+09, 2.231067779118140E+08,
2460350.500000000, A.D. 2024-Feb-10 00:00:00.0000, 2.462154260327088E+09, -6.003067096362241E+09, 2.230005068518167E+08,
2460357.500000000, A.D. 2024-Feb-17 00:00:00.0000, 2.464715785954182E+09, -6.002155651996136E+09, 2.228941979553809E+08,
2460364.500000000, A.D. 2024-Feb-24 00:00:00.0000, 2.467276820173699E+09, -6.001243194390905E+09, 2.227878514026768E+08,
2460371.500000000, A.D. 2024-Mar-02 00:00:00.0000, 2.469837360885809E+09, -6.000329723859684E+09, 2.226814673628178E+08,
2460378.500000000, A.D. 2024-Mar-09 00:00:00.0000, 2.472397405876155E+09, -5.999415241627722E+09, 2.225750459547019E+08,
2460385.500000000, A.D. 2024-Mar-16 00:00:00.0000, 2.474956953535574E+09, -5.998499750125603E+09, 2.224685871592689E+08,
2460392.500000000, A.D. 2024-Mar-23 00:00:00.0000, 2.477516004029393E+09, -5.997583252138449E+09, 2.223620907832470E+08,
2460399.500000000, A.D. 2024-Mar-30 00:00:00.0000, 2.480074558675156E+09, -5.996665748837868E+09, 2.222555566777573E+08,
2460406.500000000, A.D. 2024-Apr-06 00:00:00.0000, 2.482632617784807E+09, -5.995747240064306E+09, 2.221489849130697E+08,
2460413.500000000, A.D. 2024-Apr-13 00:00:00.0000, 2.485190180522478E+09, -5.994827726023342E+09, 2.220423756521580E+08,
2460420.500000000, A.D. 2024-Apr-20 00:00:00.0000, 2.487747245825711E+09, -5.993907207719282E+09, 2.219357290291255E+08,
2460427.500000000, A.D. 2024-Apr-27 00:00:00.0000, 2.490303812873123E+09, -5.992985686687445E+09, 2.218290451258221E+08,
2460434.500000000, A.D. 2024-May-04 00:00:00.0000, 2.492859881186394E+09, -5.992063164728419E+09, 2.217223239811592E+08,
2460441.500000000, A.D. 2024-May-11 00:00:00.0000, 2.495415450604961E+09, -5.991139643745935E+09, 2.216155656030509E+08,
2460448.500000000, A.D. 2024-May-18 00:00:00.0000, 2.497970521215365E+09, -5.990215125666435E+09, 2.215087699773581E+08,
2460455.500000000, A.D. 2024-May-25 00:00:00.0000, 2.500525093259997E+09, -5.989289612447177E+09, 2.214019370711765E+08,
2460462.500000000, A.D. 2024-Jun-01 00:00:00.0000, 2.503079167085072E+09, -5.988363106229951E+09, 2.212950668204975E+08,
2460469.500000000, A.D. 2024-Jun-08 00:00:00.0000, 2.505632743374206E+09, -5.987435609663047E+09, 2.211881590780091E+08,
2460476.500000000, A.D. 2024-Jun-15 00:00:00.0000, 2.508185824067108E+09, -5.986507125846139E+09, 2.210812135292237E+08,
2460483.500000000, A.D. 2024-Jun-22 00:00:00.0000, 2.510738412958174E+09, -5.985577656722672E+09, 2.209742297654068E+08,
2460490.500000000, A.D. 2024-Jun-29 00:00:00.0000, 2.513290513853347E+09, -5.984647201740412E+09, 2.208672075594010E+08,
2460497.500000000, A.D. 2024-Jul-06 00:00:00.0000, 2.515842128930249E+09, -5.983715759251051E+09, 2.207601468999820E+08,
2460504.500000000, A.D. 2024-Jul-13 00:00:00.0000, 2.518393259250852E+09, -5.982783327824757E+09, 2.206530478369277E+08,
2460511.500000000, A.D. 2024-Jul-20 00:00:00.0000, 2.520943905440999E+09, -5.981849906330877E+09, 2.205459104128976E+08,
2460518.500000000, A.D. 2024-Jul-27 00:00:00.0000, 2.523494067880812E+09, -5.980915493744205E+09, 2.204387346638615E+08,
2460525.500000000, A.D. 2024-Aug-03 00:00:00.0000, 2.526043746678908E+09, -5.979980089051689E+09, 2.203315206323760E+08,
2460532.500000000, A.D. 2024-Aug-10 00:00:00.0000, 2.528592941596190E+09, -5.979043691263836E+09, 2.202242683779724E+08,
2460539.500000000, A.D. 2024-Aug-17 00:00:00.0000, 2.531141651966551E+09, -5.978106299508779E+09, 2.201169779818914E+08,
2460546.500000000, A.D. 2024-Aug-24 00:00:00.0000, 2.533689876642325E+09, -5.977167913230934E+09, 2.200096495415740E+08,
2460553.500000000, A.D. 2024-Aug-31 00:00:00.0000, 2.536237614080105E+09, -5.976228532555343E+09, 2.199022831390121E+08,
2460560.500000000, A.D. 2024-Sep-07 00:00:00.0000, 2.538784862932430E+09, -5.975288158690962E+09, 2.197948787594919E+08,
2460567.500000000, A.D. 2024-Sep-14 00:00:00.0000, 2.541331623230582E+09, -5.974346793376752E+09, 2.196874362340653E+08,
2460574.500000000, A.D. 2024-Sep-21 00:00:00.0000, 2.543877896129664E+09, -5.973404436957733E+09, 2.195799554253254E+08,
2460581.500000000, A.D. 2024-Sep-28 00:00:00.0000, 2.546423681728474E+09, -5.972461088318478E+09, 2.194724364372509E+08,
2460588.500000000, A.D. 2024-Oct-05 00:00:00.0000, 2.548968978633859E+09, -5.971516746672247E+09, 2.193648795125291E+08,
2460595.500000000, A.D. 2024-Oct-12 00:00:00.0000, 2.551513784908944E+09, -5.970571412225530E+09, 2.192572848938692E+08,
2460602.500000000, A.D. 2024-Oct-19 00:00:00.0000, 2.554058098654308E+09, -5.969625085988650E+09, 2.191496527877238E+08,
2460609.500000000, A.D. 2024-Oct-26 00:00:00.0000, 2.556601918189758E+09, -5.968677769533664E+09, 2.190419833678737E+08,
2460616.500000000, A.D. 2024-Nov-02 00:00:00.0000, 2.559145242094153E+09, -5.967729464847692E+09, 2.189342767831657E+08,
2460623.500000000, A.D. 2024-Nov-09 00:00:00.0000, 2.561688069200007E+09, -5.966780174260687E+09, 2.188265331622391E+08,
2460630.500000000, A.D. 2024-Nov-16 00:00:00.0000, 2.564230398568915E+09, -5.965829900447101E+09, 2.187187526129606E+08,
2460637.500000000, A.D. 2024-Nov-23 00:00:00.0000, 2.566772229494905E+09, -5.964878646551062E+09, 2.186109352082374E+08,
2460644.500000000, A.D. 2024-Nov-30 00:00:00.0000, 2.569313561744130E+09, -5.963926416477455E+09, 2.185030809357047E+08,
2460651.500000000, A.D. 2024-Dec-07 00:00:00.0000, 2.571854396450443E+09, -5.962973214928036E+09, 2.183951896072786E+08,
2460658.500000000, A.D. 2024-Dec-14 00:00:00.0000, 2.574394736978342E+09, -5.962019045958469E+09, 2.182872608919084E+08,
2460665.500000000, A.D. 2024-Dec-21 00:00:00.0000, 2.576934587434774E+09, -5.961063911296888E+09, 2.181792945829122E+08,
2460672.500000000, A.D. 2024-Dec-28 00:00:00.0000, 2.579473950802336E+09, -5.960107811391245E+09, 2.180712906766813E+08,
2460679.500000000, A.D. 2025-Jan-04 00:00:00.0000, 2.582012829291153E+09, -5.959150746809185E+09, 2.179632492189119E+08,
2460686.500000000, A.D. 2025-Jan-11 00:00:00.0000, 2.584551225088270E+09, -5.958192718330584E+09, 2.178551702212853E+08,
2460693.500000000, A.D. 2025-Jan-18 00:00:00.0000, 2.587089140587732E+09, -5.957233726651502E+09, 2.177470536578708E+08,
2460700.500000000, A.D. 2025-Jan-25 00:00:00.0000, 2.589626578344986E+09, -5.956273772174112E+09, 2.176388994804046E+08,
2460707.500000000, A.D. 2025-Feb-01 00:00:00.0000, 2.592163540945232E+09, -5.955312854912710E+09, 2.175307076328540E+08,
2460714.500000000, A.D. 2025-Feb-08 00:00:00.0000, 2.594700030844246E+09, -5.954350974496154E+09, 2.174224780617692E+08,
2460721.500000000, A.D. 2025-Feb-15 00:00:00.0000, 2.597236050210595E+09, -5.953388130286741E+09, 2.173142107183433E+08,
$$EOE